KUIPER-00053            
1 64513U 25134P   25210.55623268  .00026124  00000+0  72826-3 0  9993
2 64513  51.8774 156.6943 0001781 212.1066 147.9812 15.36592246  6799
KUIPER-00054            
1 64514U 25134Q   25210.56078694  .00026922  00000+0  75458-3 0  9992
2 64514  51.8756 156.7249 0002467 209.8502 150.2344 15.36405368  6739
KUIPER-00055            
1 64515U 25134R   25210.54582284  .00028568  00000+0  78342-3 0  9999
2 64515  51.8756 156.6288 0000692 117.5830 242.5227 15.37053814  6640
KUIPER-00056            
1 64516U 25134S   25210.56606681  .00025351  00000+0  71733-3 0  9994
2 64516  51.8745 156.7539 0003074 223.5030 136.5714 15.36141424  6339
KUIPER-00057            
1 64517U 25134T   25210.26035021  .00032377  00000+0  94119-3 0  9995
2 64517  51.8702 158.4433 0006490 233.8861 126.1524 15.35149963  6740
KUIPER-00058            
1 64518U 25134U   25210.57419070  .00029824  00000+0  85031-3 0  9996
2 64518  51.8733 156.8054 0004475 237.4294 122.6260 15.35811569  6338
KUIPER-00059            
1 64519U 25134V   25210.22267499  .00033885  00000+0  92933-3 0  9996
2 64519  51.8766 158.2100 0001337 158.4194 201.6849 15.36963731  6744
KUIPER-00060            
1 64520U 25134W   25210.55295170  .00026149  00000+0  72458-3 0  9996
2 64520  51.8771 156.6735 0001959 175.7314 184.3690 15.36778899  6339
