<?xml version="1.0" encoding="UTF-8"?>
<ndm xmlns:xsi="http://www.w3.org/2001/XMLSchema-instance" xsi:noNamespaceSchemaLocation="https://sanaregistry.org/r/ndmxml_unqualified/ndmxml-2.0.0-master-2.0.xsd">
<omm id="CCSDS_OMM_VERS" version="2.0">
<header><CREATION_DATE/><ORIGINATOR/></header><body><segment><metadata><OBJECT_NAME>KUIPER-00053</OBJECT_NAME><OBJECT_ID>2025-134P</OBJECT_ID><CENTER_NAME>EARTH</CENTER_NAME><REF_FRAME>TEME</REF_FRAME><TIME_SYSTEM>UTC</TIME_SYSTEM><MEAN_ELEMENT_THEORY>SGP4</MEAN_ELEMENT_THEORY></metadata><data><meanElements><EPOCH>2025-07-29T13:20:58.503552</EPOCH><MEAN_MOTION>15.36592246</MEAN_MOTION><ECCENTRICITY>.0001781</ECCENTRICITY><INCLINATION>51.8774</INCLINATION><RA_OF_ASC_NODE>156.6943</RA_OF_ASC_NODE><ARG_OF_PERICENTER>212.1066</ARG_OF_PERICENTER><MEAN_ANOMALY>147.9812</MEAN_ANOMALY></meanElements><tleParameters><EPHEMERIS_TYPE>0</EPHEMERIS_TYPE><CLASSIFICATION_TYPE>U</CLASSIFICATION_TYPE><NORAD_CAT_ID>64513</NORAD_CAT_ID><ELEMENT_SET_NO>999</ELEMENT_SET_NO><REV_AT_EPOCH>679</REV_AT_EPOCH><BSTAR>.72826E-3</BSTAR><MEAN_MOTION_DOT>.26124E-3</MEAN_MOTION_DOT><MEAN_MOTION_DDOT>0</MEAN_MOTION_DDOT></tleParameters></data></segment></body></omm>
<omm id="CCSDS_OMM_VERS" version="2.0">
<header><CREATION_DATE/><ORIGINATOR/></header><body><segment><metadata><OBJECT_NAME>KUIPER-00054</OBJECT_NAME><OBJECT_ID>2025-134Q</OBJECT_ID><CENTER_NAME>EARTH</CENTER_NAME><REF_FRAME>TEME</REF_FRAME><TIME_SYSTEM>UTC</TIME_SYSTEM><MEAN_ELEMENT_THEORY>SGP4</MEAN_ELEMENT_THEORY></metadata><data><meanElements><EPOCH>2025-07-29T13:27:31.991616</EPOCH><MEAN_MOTION>15.36405368</MEAN_MOTION><ECCENTRICITY>.0002467</ECCENTRICITY><INCLINATION>51.8756</INCLINATION><RA_OF_ASC_NODE>156.7249</RA_OF_ASC_NODE><ARG_OF_PERICENTER>209.8502</ARG_OF_PERICENTER><MEAN_ANOMALY>150.2344</MEAN_ANOMALY></meanElements><tleParameters><EPHEMERIS_TYPE>0</EPHEMERIS_TYPE><CLASSIFICATION_TYPE>U</CLASSIFICATION_TYPE><NORAD_CAT_ID>64514</NORAD_CAT_ID><ELEMENT_SET_NO>999</ELEMENT_SET_NO><REV_AT_EPOCH>679</REV_AT_EPOCH><BSTAR>.75458E-3</BSTAR><MEAN_MOTION_DOT>.26922E-3</MEAN_MOTION_DOT><MEAN_MOTION_DDOT>0</MEAN_MOTION_DDOT></tleParameters></data></segment></body></omm>
<omm id="CCSDS_OMM_VERS" version="2.0">
<header><CREATION_DATE/><ORIGINATOR/></header><body><segment><metadata><OBJECT_NAME>KUIPER-00055</OBJECT_NAME><OBJECT_ID>2025-134R</OBJECT_ID><CENTER_NAME>EARTH</CENTER_NAME><REF_FRAME>TEME</REF_FRAME><TIME_SYSTEM>UTC</TIME_SYSTEM><MEAN_ELEMENT_THEORY>SGP4</MEAN_ELEMENT_THEORY></metadata><data><meanElements><EPOCH>2025-07-29T13:05:59.093376</EPOCH><MEAN_MOTION>15.37053814</MEAN_MOTION><ECCENTRICITY>.0000692</ECCENTRICITY><INCLINATION>51.8756</INCLINATION><RA_OF_ASC_NODE>156.6288</RA_OF_ASC_NODE><ARG_OF_PERICENTER>117.5830</ARG_OF_PERICENTER><MEAN_ANOMALY>242.5227</MEAN_ANOMALY></meanElements><tleParameters><EPHEMERIS_TYPE>0</EPHEMERIS_TYPE><CLASSIFICATION_TYPE>U</CLASSIFICATION_TYPE><NORAD_CAT_ID>64515</NORAD_CAT_ID><ELEMENT_SET_NO>999</ELEMENT_SET_NO><REV_AT_EPOCH>664</REV_AT_EPOCH><BSTAR>.78342E-3</BSTAR><MEAN_MOTION_DOT>.28568E-3</MEAN_MOTION_DOT><MEAN_MOTION_DDOT>0</MEAN_MOTION_DDOT></tleParameters></data></segment></body></omm>
<omm id="CCSDS_OMM_VERS" version="2.0">
<header><CREATION_DATE/><ORIGINATOR/></header><body><segment><metadata><OBJECT_NAME>KUIPER-00056</OBJECT_NAME><OBJECT_ID>2025-134S</OBJECT_ID><CENTER_NAME>EARTH</CENTER_NAME><REF_FRAME>TEME</REF_FRAME><TIME_SYSTEM>UTC</TIME_SYSTEM><MEAN_ELEMENT_THEORY>SGP4</MEAN_ELEMENT_THEORY></metadata><data><meanElements><EPOCH>2025-07-29T13:35:08.172384</EPOCH><MEAN_MOTION>15.36141424</MEAN_MOTION><ECCENTRICITY>.0003074</ECCENTRICITY><INCLINATION>51.8745</INCLINATION><RA_OF_ASC_NODE>156.7539</RA_OF_ASC_NODE><ARG_OF_PERICENTER>223.5030</ARG_OF_PERICENTER><MEAN_ANOMALY>136.5714</MEAN_ANOMALY></meanElements><tleParameters><EPHEMERIS_TYPE>0</EPHEMERIS_TYPE><CLASSIFICATION_TYPE>U</CLASSIFICATION_TYPE><NORAD_CAT_ID>64516</NORAD_CAT_ID><ELEMENT_SET_NO>999</ELEMENT_SET_NO><REV_AT_EPOCH>679</REV_AT_EPOCH><BSTAR>.71733E-3</BSTAR><MEAN_MOTION_DOT>.25351E-3</MEAN_MOTION_DOT><MEAN_MOTION_DDOT>0</MEAN_MOTION_DDOT></tleParameters></data></segment></body></omm>
<omm id="CCSDS_OMM_VERS" version="2.0">
<header><CREATION_DATE/><ORIGINATOR/></header><body><segment><metadata><OBJECT_NAME>KUIPER-00057</OBJECT_NAME><OBJECT_ID>2025-134T</OBJECT_ID><CENTER_NAME>EARTH</CENTER_NAME><REF_FRAME>TEME</REF_FRAME><TIME_SYSTEM>UTC</TIME_SYSTEM><MEAN_ELEMENT_THEORY>SGP4</MEAN_ELEMENT_THEORY></metadata><data><meanElements><EPOCH>2025-07-29T06:14:54.258144</EPOCH><MEAN_MOTION>15.35149963</MEAN_MOTION><ECCENTRICITY>.000649</ECCENTRICITY><INCLINATION>51.8702</INCLINATION><RA_OF_ASC_NODE>158.4433</RA_OF_ASC_NODE><ARG_OF_PERICENTER>233.8861</ARG_OF_PERICENTER><MEAN_ANOMALY>126.1524</MEAN_ANOMALY></meanElements><tleParameters><EPHEMERIS_TYPE>0</EPHEMERIS_TYPE><CLASSIFICATION_TYPE>U</CLASSIFICATION_TYPE><NORAD_CAT_ID>64517</NORAD_CAT_ID><ELEMENT_SET_NO>999</ELEMENT_SET_NO><REV_AT_EPOCH>674</REV_AT_EPOCH><BSTAR>.94119E-3</BSTAR><MEAN_MOTION_DOT>.32377E-3</MEAN_MOTION_DOT><MEAN_MOTION_DDOT>0</MEAN_MOTION_DDOT></tleParameters></data></segment></body></omm>
<omm id="CCSDS_OMM_VERS" version="2.0">
<header><CREATION_DATE/><ORIGINATOR/></header><body><segment><metadata><OBJECT_NAME>KUIPER-00058</OBJECT_NAME><OBJECT_ID>2025-134U</OBJECT_ID><CENTER_NAME>EARTH</CENTER_NAME><REF_FRAME>TEME</REF_FRAME><TIME_SYSTEM>UTC</TIME_SYSTEM><MEAN_ELEMENT_THEORY>SGP4</MEAN_ELEMENT_THEORY></metadata><data><meanElements><EPOCH>2025-07-29T13:46:50.076480</EPOCH><MEAN_MOTION>15.35811569</MEAN_MOTION><ECCENTRICITY>.0004475</ECCENTRICITY><INCLINATION>51.8733</INCLINATION><RA_OF_ASC_NODE>156.8054</RA_OF_ASC_NODE><ARG_OF_PERICENTER>237.4294</ARG_OF_PERICENTER><MEAN_ANOMALY>122.6260</MEAN_ANOMALY></meanElements><tleParameters><EPHEMERIS_TYPE>0</EPHEMERIS_TYPE><CLASSIFICATION_TYPE>U</CLASSIFICATION_TYPE><NORAD_CAT_ID>64518</NORAD_CAT_ID><ELEMENT_SET_NO>999</ELEMENT_SET_NO><REV_AT_EPOCH>679</REV_AT_EPOCH><BSTAR>.85031E-3</BSTAR><MEAN_MOTION_DOT>.29824E-3</MEAN_MOTION_DOT><MEAN_MOTION_DDOT>0</MEAN_MOTION_DDOT></tleParameters></data></segment></body></omm>
<omm id="CCSDS_OMM_VERS" version="2.0">
<header><CREATION_DATE/><ORIGINATOR/></header><body><segment><metadata><OBJECT_NAME>KUIPER-00059</OBJECT_NAME><OBJECT_ID>2025-134V</OBJECT_ID><CENTER_NAME>EARTH</CENTER_NAME><REF_FRAME>TEME</REF_FRAME><TIME_SYSTEM>UTC</TIME_SYSTEM><MEAN_ELEMENT_THEORY>SGP4</MEAN_ELEMENT_THEORY></metadata><data><meanElements><EPOCH>2025-07-29T05:20:39.119136</EPOCH><MEAN_MOTION>15.36963731</MEAN_MOTION><ECCENTRICITY>.0001337</ECCENTRICITY><INCLINATION>51.8766</INCLINATION><RA_OF_ASC_NODE>158.2100</RA_OF_ASC_NODE><ARG_OF_PERICENTER>158.4194</ARG_OF_PERICENTER><MEAN_ANOMALY>201.6849</MEAN_ANOMALY></meanElements><tleParameters><EPHEMERIS_TYPE>0</EPHEMERIS_TYPE><CLASSIFICATION_TYPE>U</CLASSIFICATION_TYPE><NORAD_CAT_ID>64519</NORAD_CAT_ID><ELEMENT_SET_NO>999</ELEMENT_SET_NO><REV_AT_EPOCH>674</REV_AT_EPOCH><BSTAR>.92933E-3</BSTAR><MEAN_MOTION_DOT>.33885E-3</MEAN_MOTION_DOT><MEAN_MOTION_DDOT>0</MEAN_MOTION_DDOT></tleParameters></data></segment></body></omm>
<omm id="CCSDS_OMM_VERS" version="2.0">
<header><CREATION_DATE/><ORIGINATOR/></header><body><segment><metadata><OBJECT_NAME>KUIPER-00060</OBJECT_NAME><OBJECT_ID>2025-134W</OBJECT_ID><CENTER_NAME>EARTH</CENTER_NAME><REF_FRAME>TEME</REF_FRAME><TIME_SYSTEM>UTC</TIME_SYSTEM><MEAN_ELEMENT_THEORY>SGP4</MEAN_ELEMENT_THEORY></metadata><data><meanElements><EPOCH>2025-07-29T13:16:15.026880</EPOCH><MEAN_MOTION>15.36778899</MEAN_MOTION><ECCENTRICITY>.0001959</ECCENTRICITY><INCLINATION>51.8771</INCLINATION><RA_OF_ASC_NODE>156.6735</RA_OF_ASC_NODE><ARG_OF_PERICENTER>175.7314</ARG_OF_PERICENTER><MEAN_ANOMALY>184.3690</MEAN_ANOMALY></meanElements><tleParameters><EPHEMERIS_TYPE>0</EPHEMERIS_TYPE><CLASSIFICATION_TYPE>U</CLASSIFICATION_TYPE><NORAD_CAT_ID>64520</NORAD_CAT_ID><ELEMENT_SET_NO>999</ELEMENT_SET_NO><REV_AT_EPOCH>678</REV_AT_EPOCH><BSTAR>.72458E-3</BSTAR><MEAN_MOTION_DOT>.26149E-3</MEAN_MOTION_DOT><MEAN_MOTION_DDOT>0</MEAN_MOTION_DDOT></tleParameters></data></segment></body></omm>

</ndm>
